[{"OBJECT_NAME":"TRANSPORTER-16 OBJECT CD","OBJECT_ID":"2026-067CD","EPOCH":"2026-04-25T12:54:20.570976","MEAN_MOTION":14.91148752,"ECCENTRICITY":0.0001949,"INCLINATION":97.7532,"RA_OF_ASC_NODE":74.586,"ARG_OF_PERICENTER":198.2315,"MEAN_ANOMALY":161.8834,"EPHEMERIS_TYPE":0,"CLASSIFICATION_TYPE":"U","NORAD_CAT_ID":68491,"ELEMENT_SET_NO":999,"REV_AT_EPOCH":387,"BSTAR":0.00015585586,"MEAN_MOTION_DOT":1.491e-5,"MEAN_MOTION_DDOT":0},{"OBJECT_NAME":"TRANSPORTER-16 OBJECT CE","OBJECT_ID":"2026-067CE","EPOCH":"2026-04-25T12:55:42.320064","MEAN_MOTION":14.91137215,"ECCENTRICITY":0.00022579,"INCLINATION":97.7528,"RA_OF_ASC_NODE":74.5851,"ARG_OF_PERICENTER":202.7975,"MEAN_ANOMALY":157.3144,"EPHEMERIS_TYPE":0,"CLASSIFICATION_TYPE":"U","NORAD_CAT_ID":68492,"ELEMENT_SET_NO":999,"REV_AT_EPOCH":387,"BSTAR":0.00048255673,"MEAN_MOTION_DOT":4.733e-5,"MEAN_MOTION_DDOT":0},{"OBJECT_NAME":"TRANSPORTER-16 OBJECT CF","OBJECT_ID":"2026-067CF","EPOCH":"2026-04-25T12:54:03.460320","MEAN_MOTION":14.91176885,"ECCENTRICITY":0.00035217,"INCLINATION":97.7615,"RA_OF_ASC_NODE":74.6095,"ARG_OF_PERICENTER":174.2545,"MEAN_ANOMALY":185.8715,"EPHEMERIS_TYPE":0,"CLASSIFICATION_TYPE":"U","NORAD_CAT_ID":68493,"ELEMENT_SET_NO":999,"REV_AT_EPOCH":387,"BSTAR":0.00032580862,"MEAN_MOTION_DOT":3.18e-5,"MEAN_MOTION_DDOT":0},{"OBJECT_NAME":"ICEYE-X71","OBJECT_ID":"2026-067CG","EPOCH":"2026-04-25T12:47:28.571712","MEAN_MOTION":14.91412298,"ECCENTRICITY":0.00021056,"INCLINATION":97.7578,"RA_OF_ASC_NODE":74.6043,"ARG_OF_PERICENTER":153.4375,"MEAN_ANOMALY":206.6952,"EPHEMERIS_TYPE":0,"CLASSIFICATION_TYPE":"U","NORAD_CAT_ID":68494,"ELEMENT_SET_NO":999,"REV_AT_EPOCH":387,"BSTAR":0.0002076898,"MEAN_MOTION_DOT":2.019e-5,"MEAN_MOTION_DDOT":0},{"OBJECT_NAME":"GRAVITAS","OBJECT_ID":"2026-067CH","EPOCH":"2026-04-20T22:12:32.439744","MEAN_MOTION":14.84194594,"ECCENTRICITY":0.00016376,"INCLINATION":97.76,"RA_OF_ASC_NODE":70.0281,"ARG_OF_PERICENTER":178.9108,"MEAN_ANOMALY":181.211,"EPHEMERIS_TYPE":0,"CLASSIFICATION_TYPE":"U","NORAD_CAT_ID":68495,"ELEMENT_SET_NO":999,"REV_AT_EPOCH":318,"BSTAR":4.4401613e-5,"MEAN_MOTION_DOT":3.2e-6,"MEAN_MOTION_DDOT":0},{"OBJECT_NAME":"ICEYE-X73","OBJECT_ID":"2026-067CJ","EPOCH":"2026-04-25T14:10:21.701280","MEAN_MOTION":14.91958029,"ECCENTRICITY":0.00032621,"INCLINATION":97.7574,"RA_OF_ASC_NODE":74.6818,"ARG_OF_PERICENTER":104.0262,"MEAN_ANOMALY":256.1319,"EPHEMERIS_TYPE":0,"CLASSIFICATION_TYPE":"U","NORAD_CAT_ID":68496,"ELEMENT_SET_NO":999,"REV_AT_EPOCH":388,"BSTAR":0.00020869089,"MEAN_MOTION_DOT":2.057e-5,"MEAN_MOTION_DDOT":0},{"OBJECT_NAME":"ICEYE-X75","OBJECT_ID":"2026-067CK","EPOCH":"2026-04-25T14:10:54.041664","MEAN_MOTION":14.91940999,"ECCENTRICITY":0.00029842,"INCLINATION":97.7556,"RA_OF_ASC_NODE":74.6763,"ARG_OF_PERICENTER":100.4773,"MEAN_ANOMALY":259.6783,"EPHEMERIS_TYPE":0,"CLASSIFICATION_TYPE":"U","NORAD_CAT_ID":68497,"ELEMENT_SET_NO":999,"REV_AT_EPOCH":388,"BSTAR":0.00021349651,"MEAN_MOTION_DOT":2.105e-5,"MEAN_MOTION_DDOT":0},{"OBJECT_NAME":"TRANSPORTER-16 OBJECT CL","OBJECT_ID":"2026-067CL","EPOCH":"2026-04-25T12:51:29.200032","MEAN_MOTION":14.91262682,"ECCENTRICITY":0.00013008,"INCLINATION":97.7508,"RA_OF_ASC_NODE":74.5834,"ARG_OF_PERICENTER":198.6958,"MEAN_ANOMALY":161.4213,"EPHEMERIS_TYPE":0,"CLASSIFICATION_TYPE":"U","NORAD_CAT_ID":68498,"ELEMENT_SET_NO":999,"REV_AT_EPOCH":387,"BSTAR":0.00028243213,"MEAN_MOTION_DOT":2.755e-5,"MEAN_MOTION_DDOT":0},{"OBJECT_NAME":"TRANSPORTER-16 OBJECT CM","OBJECT_ID":"2026-067CM","EPOCH":"2026-04-25T12:47:12.657696","MEAN_MOTION":14.91405028,"ECCENTRICITY":0.00013147,"INCLINATION":97.7549,"RA_OF_ASC_NODE":74.5965,"ARG_OF_PERICENTER":142.0818,"MEAN_ANOMALY":218.0494,"EPHEMERIS_TYPE":0,"CLASSIFICATION_TYPE":"U","NORAD_CAT_ID":68499,"ELEMENT_SET_NO":999,"REV_AT_EPOCH":387,"BSTAR":0.00014597361,"MEAN_MOTION_DOT":1.402e-5,"MEAN_MOTION_DDOT":0},{"OBJECT_NAME":"ICEYE-X74","OBJECT_ID":"2026-067CN","EPOCH":"2026-04-25T14:22:59.494944","MEAN_MOTION":14.91456467,"ECCENTRICITY":0.00021092,"INCLINATION":97.7584,"RA_OF_ASC_NODE":74.6732,"ARG_OF_PERICENTER":147.3861,"MEAN_ANOMALY":212.7489,"EPHEMERIS_TYPE":0,"CLASSIFICATION_TYPE":"U","NORAD_CAT_ID":68500,"ELEMENT_SET_NO":999,"REV_AT_EPOCH":388,"BSTAR":0.00018974835,"MEAN_MOTION_DOT":1.842e-5,"MEAN_MOTION_DDOT":0},{"OBJECT_NAME":"TRANSPORTER-16 OBJECT CP","OBJECT_ID":"2026-067CP","EPOCH":"2026-04-25T12:51:43.453440","MEAN_MOTION":14.9125958,"ECCENTRICITY":0.00029584,"INCLINATION":97.7596,"RA_OF_ASC_NODE":74.6049,"ARG_OF_PERICENTER":172.3235,"MEAN_ANOMALY":187.803,"EPHEMERIS_TYPE":0,"CLASSIFICATION_TYPE":"U","NORAD_CAT_ID":68501,"ELEMENT_SET_NO":999,"REV_AT_EPOCH":387,"BSTAR":0.00016584759,"MEAN_MOTION_DOT":1.595e-5,"MEAN_MOTION_DDOT":0},{"OBJECT_NAME":"ICEYE-X76","OBJECT_ID":"2026-067CQ","EPOCH":"2026-04-25T12:44:40.858944","MEAN_MOTION":14.915251,"ECCENTRICITY":0.00022864,"INCLINATION":97.759,"RA_OF_ASC_NODE":74.6105,"ARG_OF_PERICENTER":142.0743,"MEAN_ANOMALY":218.0637,"EPHEMERIS_TYPE":0,"CLASSIFICATION_TYPE":"U","NORAD_CAT_ID":68502,"ELEMENT_SET_NO":999,"REV_AT_EPOCH":387,"BSTAR":0.00019073273,"MEAN_MOTION_DOT":1.855e-5,"MEAN_MOTION_DDOT":0},{"OBJECT_NAME":"FLYLAB2","OBJECT_ID":"2026-067CR","EPOCH":"2026-04-25T14:41:23.490816","MEAN_MOTION":14.90549611,"ECCENTRICITY":0.00038448,"INCLINATION":97.7536,"RA_OF_ASC_NODE":74.644,"ARG_OF_PERICENTER":223.8688,"MEAN_ANOMALY":136.2225,"EPHEMERIS_TYPE":0,"CLASSIFICATION_TYPE":"U","NORAD_CAT_ID":68503,"ELEMENT_SET_NO":999,"REV_AT_EPOCH":388,"BSTAR":0.00018415205,"MEAN_MOTION_DOT":1.745e-5,"MEAN_MOTION_DDOT":0},{"OBJECT_NAME":"ICEYE-X72","OBJECT_ID":"2026-067CS","EPOCH":"2026-04-25T14:14:50.569440","MEAN_MOTION":14.91783756,"ECCENTRICITY":0.00028953,"INCLINATION":97.7589,"RA_OF_ASC_NODE":74.6824,"ARG_OF_PERICENTER":120.3102,"MEAN_ANOMALY":239.8404,"EPHEMERIS_TYPE":0,"CLASSIFICATION_TYPE":"U","NORAD_CAT_ID":68504,"ELEMENT_SET_NO":999,"REV_AT_EPOCH":388,"BSTAR":0.00021058622,"MEAN_MOTION_DOT":2.067e-5,"MEAN_MOTION_DDOT":0},{"OBJECT_NAME":"GEMS2-AMETHYST","OBJECT_ID":"2026-067CT","EPOCH":"2026-04-25T14:43:03.067680","MEAN_MOTION":14.90704809,"ECCENTRICITY":0.00044411,"INCLINATION":97.7566,"RA_OF_ASC_NODE":74.6517,"ARG_OF_PERICENTER":203.2215,"MEAN_ANOMALY":156.8803,"EPHEMERIS_TYPE":0,"CLASSIFICATION_TYPE":"U","NORAD_CAT_ID":68505,"ELEMENT_SET_NO":999,"REV_AT_EPOCH":388,"BSTAR":0.00048330139,"MEAN_MOTION_DOT":4.69e-5,"MEAN_MOTION_DDOT":0},{"OBJECT_NAME":"STARLINK-37262","OBJECT_ID":"2026-068A","EPOCH":"2026-04-24T16:35:54.195936","MEAN_MOTION":15.80906488,"ECCENTRICITY":6.437e-5,"INCLINATION":53.1563,"RA_OF_ASC_NODE":278.7861,"ARG_OF_PERICENTER":85.3168,"MEAN_ANOMALY":274.7928,"EPHEMERIS_TYPE":0,"CLASSIFICATION_TYPE":"U","NORAD_CAT_ID":68508,"ELEMENT_SET_NO":999,"REV_AT_EPOCH":394,"BSTAR":0.0011203297,"MEAN_MOTION_DOT":0.00226672,"MEAN_MOTION_DDOT":0}]
