TRANSPORTER-16 OBJECT CD
1 68491U 26067CD  26115.53773809  .00001491  00000+0  15586-3 0  9998
2 68491  97.7532  74.5860 0001949 198.2315 161.8834 14.91148752  3876
TRANSPORTER-16 OBJECT CE
1 68492U 26067CE  26115.53868426  .00004733  00000+0  48256-3 0  9991
2 68492  97.7528  74.5851 0002257 202.7975 157.3144 14.91137215  3874
TRANSPORTER-16 OBJECT CF
1 68493U 26067CF  26115.53754005  .00003180  00000+0  32581-3 0  9998
2 68493  97.7615  74.6095 0003521 174.2545 185.8715 14.91176885  3870
ICEYE-X71               
1 68494U 26067CG  26115.53296958  .00002019  00000+0  20769-3 0  9992
2 68494  97.7578  74.6043 0002105 153.4375 206.6952 14.91412298  3875
GRAVITAS                
1 68495U 26067CH  26110.92537546  .00000320  00000+0  44402-4 0  9996
2 68495  97.7600  70.0281 0001637 178.9108 181.2110 14.84194594  3187
ICEYE-X73               
1 68496U 26067CJ  26115.59052895  .00002057  00000+0  20869-3 0  9993
2 68496  97.7574  74.6818 0003262 104.0262 256.1319 14.91958029  3880
ICEYE-X75               
1 68497U 26067CK  26115.59090326  .00002105  00000+0  21350-3 0  9995
2 68497  97.7556  74.6763 0002984 100.4773 259.6783 14.91940999  3887
TRANSPORTER-16 OBJECT CL
1 68498U 26067CL  26115.53575463  .00002755  00000+0  28243-3 0  9999
2 68498  97.7508  74.5834 0001300 198.6958 161.4213 14.91262682  3871
TRANSPORTER-16 OBJECT CM
1 68499U 26067CM  26115.53278539  .00001402  00000+0  14597-3 0  9999
2 68499  97.7549  74.5965 0001314 142.0818 218.0494 14.91405028  3878
ICEYE-X74               
1 68500U 26067CN  26115.59929971  .00001842  00000+0  18975-3 0  9993
2 68500  97.7584  74.6732 0002109 147.3861 212.7489 14.91456467  3881
TRANSPORTER-16 OBJECT CP
1 68501U 26067CP  26115.53591960  .00001595  00000+0  16585-3 0  9991
2 68501  97.7596  74.6049 0002958 172.3235 187.8030 14.91259580  3871
ICEYE-X76               
1 68502U 26067CQ  26115.53102846  .00001855  00000+0  19073-3 0  9997
2 68502  97.7590  74.6105 0002286 142.0743 218.0637 14.91525100  3875
FLYLAB2                 
1 68503U 26067CR  26115.61207744  .00001745  00000+0  18415-3 0  9997
2 68503  97.7536  74.6440 0003844 223.8688 136.2225 14.90549611  3882
ICEYE-X72               
1 68504U 26067CS  26115.59364085  .00002067  00000+0  21059-3 0  9993
2 68504  97.7589  74.6824 0002895 120.3102 239.8404 14.91783756  3884
GEMS2-AMETHYST          
1 68505U 26067CT  26115.61322995  .00004690  00000+0  48330-3 0  9996
2 68505  97.7566  74.6517 0004441 203.2215 156.8803 14.90704809  3886
STARLINK-37262          
1 68508U 26068A   26114.69159949  .00226672  00000+0  11203-2 0  9998
2 68508  53.1563 278.7861 0000643  85.3168 274.7928 15.80906488  3949
